EUTELSAT 7A             
1 28187U 04008A   25329.91188914  .00000122  00000+0  00000+0 0  9993
2 28187   5.3124  74.4402 0000878 182.4425 357.2935  1.00271946 79317
EUTELSAT 174A           
1 28924U 05052A   25330.13254331  .00000029  00000+0  00000+0 0  9991
2 28924   3.7029  79.0468 0006187 164.4073  43.6008  1.00270103 50290
EUTELSAT HOTBIRD 13B    
1 29270U 06032A   25330.08516823  .00000175  00000+0  00000+0 0  9998
2 29270   1.1343  84.5138 0003428 151.4886 253.0671  1.00268928 45271
EUTELSAT HOTBIRD 13C    
1 33459U 08065A   25330.14681487 -.00000235  00000+0  00000+0 0  9994
2 33459   2.4256  81.6010 0000802 149.0821 213.3213  1.00052102 45315
EUTELSAT 36B            
1 36101U 09065A   25330.06850240  .00000131  00000+0  00000+0 0  9992
2 36101   0.0427   7.9557 0005997 237.5174 254.9535  1.00271186 58673
EUTELSAT KA-SAT 9A      
1 37258U 10069A   25330.15539493  .00000081  00000+0  00000+0 0  9990
2 37258   0.0553 324.7229 0001681 225.8181 299.7742  1.00270638 41970
EUTELSAT 7 WEST A       
1 37816U 11051A   25330.15218824 -.00000041  00000+0  00000+0 0  9991
2 37816   0.0629 347.8292 0006114 229.8992 255.1092  1.00269132 51848
EUTELSAT 16A            
1 37836U 11057A   25330.01406976  .00000123  00000+0  00000+0 0  9991
2 37836   0.0617   5.9691 0006004 246.2440 194.0532  1.00270862  5291
